id,region,gu,name,address,x,y,category,phone,url,keywords,found_in_gus
421094811,광주,광산구,카페304 신창점,광주 광산구 장신로 280-14,126.842069369675,35.1911307776889,카페,062-951-0304,http://place.map.kakao.com/421094811,디저트 카페;디저트카페;베이커리 카페,광산구
27507002,광주,광산구,카페마카리조,광주 광산구 풍영로101번안길 11-8,126.809895966492,35.1808055062488,카페,062-263-1181,http://place.map.kakao.com/27507002,디저트 카페;디저트카페;케이크 카페,광산구
1463980512,광주,광산구,몰레,광주 광산구 수완로50번길 42-4,126.8306273852465,35.1889331386184,카페,010-4145-7836,http://place.map.kakao.com/1463980512,디저트 카페;디저트카페;케이크 카페,광산구
1985456206,광주,광산구,아싸롱,광주 광산구 첨단중앙로124번길 5,126.842773380625,35.2166669943408,카페,070-7543-3522,http://place.map.kakao.com/1985456206,디저트 카페;디저트카페,광산구
24285349,광주,광산구,설빙 광주수완점,광주 광산구 장신로148번길 17,126.826476448847,35.1897538039282,카페,062-956-4030,http://place.map.kakao.com/24285349,디저트 카페;디저트카페,광산구
1023967512,광주,광산구,카하와,광주 광산구 월곡로55번길 16,126.815876767094,35.1692485476281,카페,,http://place.map.kakao.com/1023967512,디저트 카페;디저트카페,광산구
1178328422,광주,광산구,휘게,광주 광산구 왕버들로289번길 53,126.842114265138,35.1974367044101,카페,062-956-0002,http://place.map.kakao.com/1178328422,디저트 카페;디저트카페;베이커리 카페,광산구
1142296178,광주,광산구,esc2,광주 광산구 풍영정길 241-2,126.857731282376,35.1885074182421,카페,,http://place.map.kakao.com/1142296178,디저트 카페;디저트카페;베이커리 카페,광산구
61680413,광주,광산구,광카롱,광주 광산구 광산로 11-1,126.79332045072633,35.137915190317905,카페,010-8024-7907,http://place.map.kakao.com/61680413,디저트 카페;디저트카페,광산구
549653127,광주,광산구,슈네케 하남점,광주 광산구 마항길 46,126.79756217178,35.1845667017419,카페,,http://place.map.kakao.com/549653127,디저트 카페;디저트카페,광산구
2031285111,광주,광산구,고요커피,광주 광산구 첨단중앙로116번길 31,126.8444057663052,35.21595433262465,카페,,http://place.map.kakao.com/2031285111,디저트 카페;디저트카페,광산구
313613172,광주,광산구,시에나카페&페스츄리,광주 광산구 단전둘레길 18,126.7961895867,35.1824516255018,카페,,http://place.map.kakao.com/313613172,디저트 카페;디저트카페;베이커리 카페,광산구
1312045913,광주,광산구,아람,광주 광산구 첨단강변로 77,126.851739125463,35.2136218265422,카페,,http://place.map.kakao.com/1312045913,디저트 카페;디저트카페;베이커리 카페,광산구
26644287,광주,광산구,설빙 광주호남대점,광주 광산구 어등대로 418,126.76920469073899,35.148756481410594,카페,062-941-9449,http://place.map.kakao.com/26644287,디저트 카페;디저트카페,광산구
669007313,광주,광산구,본빵협동조합,광주 광산구 용진로 376-3,126.72899124662445,35.18008275086742,카페,062-944-4252,http://place.map.kakao.com/669007313,디저트 카페;디저트카페;베이커리 카페,광산구
24212703,광주,광산구,설빙 광주첨단점,광주 광산구 첨단중앙로 104,126.843341867692,35.2146144555438,카페,062-973-5957,http://place.map.kakao.com/24212703,디저트 카페;디저트카페,광산구
1371729776,광주,광산구,아이잇케이크,광주 광산구 장신로50번길 9-8,126.816175429421,35.1901766645996,카페,010-8780-9609,http://place.map.kakao.com/1371729776,디저트 카페;디저트카페;케이크 카페,광산구
1765682506,광주,광산구,디저또,광주 광산구 신창로106번길 8-26,126.837804344814,35.1935578941325,카페,,http://place.map.kakao.com/1765682506,디저트 카페;디저트카페,광산구
1282755698,광주,광산구,오아르케이크,광주 광산구 평동로1100번길 71,126.78485594902466,35.13212543764233,카페,0507-1405-3115,http://place.map.kakao.com/1282755698,디저트 카페;디저트카페;케이크 카페,광산구
1695588329,광주,광산구,파티세리시즈널,광주 광산구 수완로52번길 46-13,126.83115305497218,35.189055555411485,카페,0502-5553-3448,http://place.map.kakao.com/1695588329,디저트 카페;디저트카페,광산구
24914575,광주,광산구,설빙 신창점,광주 광산구 신창로 64,126.83731673511602,35.190847771140405,카페,062-952-3555,http://place.map.kakao.com/24914575,디저트 카페;디저트카페,광산구
256671191,광주,광산구,설빙 광주광산하남점,광주 광산구 용아로379번길 49,126.801548787436,35.1763799847132,카페,062-961-5889,http://place.map.kakao.com/256671191,디저트 카페;디저트카페,광산구
1123275784,광주,광산구,사실빙 광주수완점,광주 광산구 장신로50번길 4,126.815423543509,35.1905613002876,카페,010-9943-6200,http://place.map.kakao.com/1123275784,디저트 카페;디저트카페,광산구
266372881,광주,광산구,요거트월드 광주첨단점,광주 광산구 월계로 169,126.844044397087,35.2136680431671,카페,,http://place.map.kakao.com/266372881,디저트 카페;디저트카페,광산구
1156492357,광주,광산구,그랩앤고 크레페 첨단원로그점,광주 광산구 임방울대로826번길 19-23,126.850046401321,35.2167465262796,카페,0503-7152-1971,http://place.map.kakao.com/1156492357,디저트 카페;디저트카페,광산구
1021501758,광주,광산구,꽈르르,광주 광산구 수완로50번길 59,126.831297406695,35.1882733812637,카페,010-7662-6923,http://place.map.kakao.com/1021501758,디저트 카페;디저트카페,광산구
1520049872,광주,광산구,갱소년,광주 광산구 송정로8번길 7-4,126.79210690857957,35.13660343704841,카페,062-942-1913,http://place.map.kakao.com/1520049872,디저트 카페;디저트카페,광산구
161787256,광주,광산구,스타롱,광주 광산구 풍영로101번안길 11,126.810131460067,35.1815116364456,카페,0502-5551-7431,http://place.map.kakao.com/161787256,디저트 카페;디저트카페,광산구
266686110,광주,광산구,요거트아이스크림의정석 광주신창점,광주 광산구 신창로 130,126.838786367576,35.1966950131085,카페,,http://place.map.kakao.com/266686110,디저트 카페;디저트카페,광산구
1041958157,광주,광산구,요거트아이스크림의정석 광주첨단점,광주 광산구 첨단중앙로152번길 6-23,126.844692827651,35.2186281051981,카페,,http://place.map.kakao.com/1041958157,디저트 카페;디저트카페,광산구
1519675114,광주,광산구,요거트아이스크림의정석 광주신가점,광주 광산구 수등로94번길 22,126.81913627518652,35.18242767369909,카페,062-450-9777,http://place.map.kakao.com/1519675114,디저트 카페;디저트카페,광산구
112520663,광주,광산구,제이델링 광주광산구수완점,광주 광산구 수완로50번길 44-11,126.830999472085,35.1879313526771,카페,0507-1495-0927,http://place.map.kakao.com/112520663,디저트 카페;디저트카페,광산구
1162507231,광주,광산구,슈에뜨,광주 광산구 신창로35번길 85-5,126.83410698379451,35.18723259268314,카페,010-6302-5003,http://place.map.kakao.com/1162507231,디저트 카페;디저트카페,광산구
1661273008,광주,광산구,마으레,광주 광산구 장수길 65-8,126.78738408665667,35.18308997012248,카페,010-5716-7127,http://place.map.kakao.com/1661273008,디저트 카페;디저트카페,광산구
390180296,광주,광산구,요거트아이스크림의정석 선운점,광주 광산구 선운중앙로 43,126.77679605561929,35.14856699583286,카페,0507-1401-4998,http://place.map.kakao.com/390180296,디저트 카페;디저트카페,광산구
703570111,광주,광산구,송정리,광주 광산구 용보로 45,126.80282531737248,35.13552439306866,카페,0503-7150-5393,http://place.map.kakao.com/703570111,디저트 카페;디저트카페,광산구
1738324098,광주,광산구,메가샵크로플 광주송정역점,광주 광산구 송정로 5,126.792190370953,35.1374391418861,카페,,http://place.map.kakao.com/1738324098,디저트 카페;디저트카페,광산구
1518914350,광주,광산구,미쁨상점,광주 광산구 첨단내촌로57번길 17,126.83623029037317,35.21135567629878,카페,062-400-9123,http://place.map.kakao.com/1518914350,디저트 카페;디저트카페,광산구
1702093832,광주,광산구,대설 수완점,광주 광산구 임방울대로 360-1,126.824371870335,35.1921970438836,카페,070-4300-1611,http://place.map.kakao.com/1702093832,디저트 카페;디저트카페,광산구
1514337585,광주,광산구,커피쿡 광주송정점,광주 광산구 송정로 18,126.793104433477,35.1365564706393,카페,,http://place.map.kakao.com/1514337585,디저트 카페;디저트카페,광산구
699697410,광주,광산구,디저트39 하남 메가박스점,광주 광산구 무진대로 279,126.81062095935313,35.16216479182883,카페,062-953-0390,http://place.map.kakao.com/699697410,디저트 카페;디저트카페,광산구
1435081392,광주,광산구,벤티프레소 광주송정점,광주 광산구 광산로 40-1,126.79604704447792,35.139288075516426,카페,070-4651-1599,http://place.map.kakao.com/1435081392,디저트 카페;디저트카페,광산구
2038826963,광주,광산구,케이크위크,광주 광산구 상무대로 157,126.78893798087013,35.134072345276245,카페,0507-1338-5396,http://place.map.kakao.com/2038826963,디저트 카페;디저트카페;케이크 카페,광산구
1760564438,광주,광산구,마스카프,광주 광산구 신창로138번길 23-20,126.840942353486,35.1970097322457,카페,062-955-1141,http://place.map.kakao.com/1760564438,디저트 카페;디저트카페,광산구
221969088,광주,광산구,설렌,광주 광산구 선운로2번길 63-3,126.77610225706292,35.14624742006881,카페,010-9433-7578,http://place.map.kakao.com/221969088,디저트 카페;디저트카페,광산구
2014559721,광주,광산구,라라브레드 송정점,광주 광산구 광산로19번길 24,126.79342802345793,35.13920251701477,카페,1800-2785,http://place.map.kakao.com/2014559721,베이커리 카페,광산구
1628849467,광주,광산구,세컨드원 가든 광주수완점,광주 광산구 임방울대로 611-23,126.8252428916956,35.21204787637349,카페,062-952-0500,http://place.map.kakao.com/1628849467,베이커리 카페,광산구
2075311926,광주,광산구,리브베,광주 광산구 첨단중앙로182번길 76,126.84981905194078,35.2215134834942,카페,062-971-8118,http://place.map.kakao.com/2075311926,베이커리 카페,광산구
20007848,광주,광산구,엔제리너스 광주흑석점,광주 광산구 사암로383번길 6,126.80767843915282,35.17888572486398,카페,062-961-6006,http://place.map.kakao.com/20007848,베이커리 카페,광산구
158383670,광주,광산구,스퀘어,광주 광산구 하완길 103,126.82675753384048,35.20475001107652,카페,,http://place.map.kakao.com/158383670,베이커리 카페,광산구
1395038981,광주,광산구,메종,광주 광산구 상무대로 144,126.78903486895308,35.13266729139076,카페,,http://place.map.kakao.com/1395038981,베이커리 카페,광산구
325988171,광주,광산구,봄바람빵카페 광주신창점,광주 광산구 신창로131번길 10,126.83795211411366,35.19766195266745,카페,062-954-3615,http://place.map.kakao.com/325988171,베이커리 카페,광산구
1408251745,광주,광산구,오늘더베이커리,광주 광산구 고봉로 53,126.801267304239,35.1819769373786,카페,,http://place.map.kakao.com/1408251745,베이커리 카페,광산구
1369965116,광주,광산구,해이커피 광주수완점,광주 광산구 장신로147번길 5-8,126.825309099454,35.1913889840014,카페,,http://place.map.kakao.com/1369965116,베이커리 카페,광산구
2023743832,광주,광산구,그루카페,광주 광산구 어등대로 669,126.79117172143496,35.14446439686849,카페,,http://place.map.kakao.com/2023743832,베이커리 카페,광산구
1414652841,광주,광산구,지조있는카페,광주 광산구 신창로138번길 31-20,126.84138751538237,35.1967813724293,카페,062-123,http://place.map.kakao.com/1414652841,케이크 카페,광산구
630481201,광주,광산구,062케이크,광주 광산구 수완로74번길 23-19,126.831119052806,35.1932837580162,카페,0502-5550-7068,http://place.map.kakao.com/630481201,케이크 카페,광산구
1201409920,광주,광산구,플라워카페 홀릭스,광주 광산구 수완로11번길 17,126.82756012392962,35.18612650017191,카페,010-5035-7213,http://place.map.kakao.com/1201409920,케이크 카페,광산구
1865078362,광주,광산구,세라젬웰카페 광주신창직영점,광주 광산구 신창로 64,126.83742875453908,35.1908353026098,카페,062-716-0325,http://place.map.kakao.com/1865078362,케이크 카페,광산구
1701810863,광주,광산구,오렌지카페,광주 광산구 동곡서호길 21-36,126.785831974491,35.0857690578488,카페,062-942-3400,http://place.map.kakao.com/1701810863,케이크 카페,광산구
456516710,광주,광산구,아트카페 고유,광주 광산구 북문대로 619-54,126.830318149977,35.2056428842335,카페,062-951-8786,http://place.map.kakao.com/456516710,케이크 카페,광산구
602207410,광주,광산구,달달베이크카페,광주 광산구 월계로150번길 22,126.841654945338,35.2123129159113,카페,062-454-6356,http://place.map.kakao.com/602207410,케이크 카페,광산구
538373570,광주,광산구,카페네페르,광주 광산구 월계로 223-8,126.85011763788913,35.21384336504361,카페,010-5759-7554,http://place.map.kakao.com/538373570,케이크 카페,광산구
132286640,광주,광산구,끌라로치즈케이크,광주 광산구 임방울대로826번길 19-20,126.84935811487497,35.2165464734477,카페,010-9124-5395,http://place.map.kakao.com/132286640,케이크 카페,광산구
21767504,광주,광산구,카페빠르코,광주 광산구 용아로297번길 58-2,126.799856620608,35.1703011611904,카페,062-954-0150,http://place.map.kakao.com/21767504,케이크 카페,광산구
601449322,광주,광산구,조이케이크&디저트,광주 광산구 월계로130번길 37,126.8396912187963,35.211759606524744,카페,010-8056-0028,http://place.map.kakao.com/601449322,케이크 카페,광산구
647068468,광주,광산구,카페그로스,광주 광산구 마항길 43,126.79741555472447,35.18436455323677,카페,0502-5553-4731,http://place.map.kakao.com/647068468,케이크 카페,광산구
823010136,광주,광산구,카페051 광주수완점,광주 광산구 수완로33번길 76,126.82442410997089,35.189350644899314,카페,062-716-1051,http://place.map.kakao.com/823010136,케이크 카페,광산구
1282774137,광주,광산구,수완뜨락카페,광주 광산구 장덕로 158,126.82583713394,35.1970953097995,카페,,http://place.map.kakao.com/1282774137,케이크 카페,광산구
560202840,광주,광산구,카페거닐다,광주 광산구 하남울로공원1길 9,126.802974647875,35.1841844396035,카페,062-953-7578,http://place.map.kakao.com/560202840,케이크 카페,광산구
725267271,광주,광산구,데이바이데이케이크,광주 광산구 목련로394번길 17-20,126.833564486427,35.1845971892201,카페,010-8797-1892,http://place.map.kakao.com/725267271,케이크 카페,광산구
1292521285,광주,광산구,카페송,광주 광산구 임방울대로825번길 22-77,126.85022682158,35.2207721780312,카페,,http://place.map.kakao.com/1292521285,케이크 카페,광산구
205116592,광주,광산구,카페봄봄 광주송정도산점,광주 광산구 남동길48번길 53,126.790919680082,35.1297348219227,카페,010-3531-2233,http://place.map.kakao.com/205116592,케이크 카페,광산구
734003569,광주,광산구,카페일리터 광주월계점,광주 광산구 첨단내촌로 19,126.836700234069,35.2086693839062,카페,,http://place.map.kakao.com/734003569,케이크 카페,광산구
399611008,광주,북구,베러데이즈,광주 북구 중문로 11,126.918309214553,35.1738064252877,카페,010-6609-3531,http://place.map.kakao.com/399611008,디저트 카페;디저트카페,북구
185593911,광주,북구,온다방,광주 북구 고운로5번길 6,126.89919349709898,35.1821800490689,카페,,http://place.map.kakao.com/185593911,디저트 카페;디저트카페,북구
669687202,광주,북구,다스브로트,광주 북구 하서로 52,126.885469483013,35.1826320475355,카페,010-3476-0818,http://place.map.kakao.com/669687202,디저트 카페;디저트카페,북구
1331657262,광주,북구,케주베이커리부티크 전대예대점,광주 북구 용주로30번길 41,126.90301566207017,35.18085366981411,카페,062-400-5256,http://place.map.kakao.com/1331657262,디저트 카페;디저트카페,북구
565656651,광주,북구,여유커피,광주 북구 태봉로 55,126.904951757576,35.1624323589529,카페,1588-9884,http://place.map.kakao.com/565656651,디저트 카페;디저트카페,북구
220940342,광주,북구,크레센트,광주 북구 독립로 363,126.915119279497,35.1630988025292,카페,062-511-6483,http://place.map.kakao.com/220940342,디저트 카페;디저트카페,북구
681612912,광주,북구,빈드럭스,광주 북구 서하로 202-16,126.90259151488,35.186689607326,카페,0503-7150-0460,http://place.map.kakao.com/681612912,디저트 카페;디저트카페,북구
24451899,광주,북구,설빙 광주전남대점,광주 북구 우치로100번길 10-4,126.912918849914,35.1762147016424,카페,070-4232-1327,http://place.map.kakao.com/24451899,디저트 카페;디저트카페,북구
1855260320,광주,북구,카페밀당 용봉점,광주 북구 저불로31번길 8-1,126.894307452228,35.1774942400947,카페,,http://place.map.kakao.com/1855260320,디저트 카페;디저트카페;케이크 카페,북구
19452470,광주,북구,커피앤뷰,광주 북구 하백로 22,126.89074427042817,35.18957465144299,카페,062-571-1364,http://place.map.kakao.com/19452470,디저트 카페;디저트카페,북구
611810917,광주,북구,월출향가,광주 북구 추암로 278,126.86883420330234,35.24015202627689,카페,010-5482-2002,http://place.map.kakao.com/611810917,디저트 카페;디저트카페,북구
1618301736,광주,북구,해롱해롱,광주 북구 용봉로138번길 32-1,126.91091695965,35.1717497251366,카페,010-5542-5955,http://place.map.kakao.com/1618301736,디저트 카페;디저트카페,북구
269160923,광주,북구,하이데이지,광주 북구 효죽로 2-1,126.915250698438,35.1697310892775,카페,0502-5551-9285,http://place.map.kakao.com/269160923,디저트 카페;디저트카페,북구
424414529,광주,북구,스로베케이크,광주 북구 반룡로6번길 18,126.898374566015,35.178587460576,카페,0503-7150-2205,http://place.map.kakao.com/424414529,디저트 카페;디저트카페;케이크 카페,북구
1250033002,광주,북구,케주베이커리 전대상대점,광주 북구 설죽로214번길 123,126.90437275573669,35.17791542586869,카페,010-4176-5256,http://place.map.kakao.com/1250033002,디저트 카페;디저트카페,북구
1404048874,광주,북구,윤다방,광주 북구 하서로49번길 14,126.879952195562,35.1807041130212,카페,010-8575-6695,http://place.map.kakao.com/1404048874,디저트 카페;디저트카페,북구
25503484,광주,북구,설빙 용봉점,광주 북구 저불로 45,126.89516112721964,35.178675758903694,카페,062-512-7179,http://place.map.kakao.com/25503484,디저트 카페;디저트카페,북구
1986430795,광주,북구,미미당906 광주점,광주 북구 대천로 195,126.92438093542346,35.19156347543503,카페,010-7997-9066,http://place.map.kakao.com/1986430795,디저트 카페;디저트카페,북구
25506885,광주,북구,설빙 첨단2지구점,광주 북구 첨단연신로91번길 20-4,126.86249454731637,35.20655260221235,카페,062-572-0058,http://place.map.kakao.com/25506885,디저트 카페;디저트카페,북구
967787786,광주,북구,소미담 전남대점,광주 북구 용봉로90번길 38,126.90850192254,35.1717767685045,카페,010-6648-0137,http://place.map.kakao.com/967787786,디저트 카페;디저트카페,북구
1225782126,광주,북구,요거트아이스크림의정석 광주북구점,광주 북구 용주로30번길 100,126.904562120964,35.1821483440813,카페,0507-1375-7060,http://place.map.kakao.com/1225782126,디저트 카페;디저트카페,북구
276870340,광주,북구,크레버터 하우스,광주 북구 와우로 14,126.91658786996,35.1706405859992,카페,0503-7151-5977,http://place.map.kakao.com/276870340,디저트 카페;디저트카페,북구
687494400,광주,북구,더플레인,광주 북구 서양로 21,126.903763986745,35.1709555658407,카페,010-4181-8462,http://place.map.kakao.com/687494400,디저트 카페;디저트카페,북구
867577150,광주,북구,샵마카룬,광주 북구 면앙로 125-2,126.92570068784181,35.177131783907114,카페,062-266-4945,http://place.map.kakao.com/867577150,디저트 카페;디저트카페,북구
1867208061,광주,북구,배배꼬 광주일곡점,광주 북구 일곡마을로 163,126.891800229422,35.210492400135,카페,,http://place.map.kakao.com/1867208061,디저트 카페;디저트카페,북구
1811310320,광주,북구,디저트39 전대점,광주 북구 호동로 12-8,126.91422487962,35.1744489737675,카페,062-268-2200,http://place.map.kakao.com/1811310320,디저트 카페;디저트카페,북구
77191901,광주,북구,요거트아이스크림의정석 임동챔피언스필드점,광주 북구 천변우로79번길 25-1,126.88907259985548,35.16493545334729,카페,0507-1396-7060,http://place.map.kakao.com/77191901,디저트 카페;디저트카페,북구
1646852703,광주,북구,카페 온새미로,광주 북구 서방로63번길 31,126.920219307132,35.1738131065093,카페,,http://place.map.kakao.com/1646852703,디저트 카페;디저트카페,북구
484729134,광주,북구,설빙 광주북구문흥점,광주 북구 서하로 373,126.921275588371,35.1860911727768,카페,062-262-5889,http://place.map.kakao.com/484729134,디저트 카페;디저트카페,북구
1565887397,광주,북구,라이트라이트샵,광주 북구 우치로64번길 55,126.91522548118628,35.17287500701793,카페,062-383-4547,http://place.map.kakao.com/1565887397,디저트 카페;디저트카페;베이커리 카페,북구
1272490846,광주,북구,화순하다랩,광주 북구 향토문화로12번길 27,126.916635117511,35.1695202307589,카페,,http://place.map.kakao.com/1272490846,디저트 카페;디저트카페,북구
245085098,광주,북구,요거트아이스크림의정석 광주신용점,광주 북구 첨단연신로133번길 42,126.859717612438,35.2101467107127,카페,,http://place.map.kakao.com/245085098,디저트 카페;디저트카페,북구
1466289027,광주,북구,글로어 전대정문점,광주 북구 자미로 64,126.90477089688265,35.17163868927537,카페,,http://place.map.kakao.com/1466289027,디저트 카페;디저트카페,북구
1540231804,광주,북구,스위트라라,광주 북구 면앙로6번길 29,126.912908324606,35.1788782029998,카페,,http://place.map.kakao.com/1540231804,디저트 카페;디저트카페,북구
872327769,광주,북구,디저트카페달달,광주 북구 송월로49번길 1,126.913239838268,35.1882038678692,카페,010-6550-9716,http://place.map.kakao.com/872327769,디저트 카페;디저트카페,북구
1379081015,광주,북구,무니케이크,광주 북구 금호로40번길 16,126.89024697283374,35.173179439402915,카페,010-4981-1105,http://place.map.kakao.com/1379081015,디저트 카페;디저트카페;케이크 카페,북구
612140549,광주,북구,미그릭&키샌,광주 북구 효죽로9번길 13,126.916101946192,35.1702860168788,카페,010-9436-6019,http://place.map.kakao.com/612140549,디저트 카페;디저트카페,북구
21362026,광주,북구,팬도로시 전남대점,광주 북구 용봉로 77,126.90970431572376,35.178384617648796,카페,,http://place.map.kakao.com/21362026,디저트 카페;디저트카페,북구
834022484,광주,북구,앙호두 광주1호 첨단지구점,광주 북구 첨단연신로107번길 6,126.86385439951,35.2076988555702,카페,070-7773-9974,http://place.map.kakao.com/834022484,디저트 카페;디저트카페,북구
834978810,광주,북구,요거트아이스크림의정석 광주중흥점,광주 북구 우치로64번길 61,126.915528433568,35.1728995552619,카페,,http://place.map.kakao.com/834978810,디저트 카페;디저트카페,북구
1691090713,광주,북구,거북당 전대예대점,광주 북구 용주로34번길 26,126.90247865005135,35.180989343401826,카페,062-522-6970,http://place.map.kakao.com/1691090713,디저트 카페;디저트카페,북구
1054391548,광주,북구,요거트아이스크림의정석 광주일곡점,광주 북구 설죽로 518-4,126.898689861617,35.2049451308828,카페,,http://place.map.kakao.com/1054391548,디저트 카페;디저트카페,북구
1606753237,광주,북구,후드,광주 북구 우치로 60,126.91255601988964,35.17263605243246,카페,,http://place.map.kakao.com/1606753237,디저트 카페;디저트카페,북구
472522478,광주,북구,앤셜리,광주 북구 삼정로 74,126.9374318225528,35.16851782807071,카페,062-515-0243,http://place.map.kakao.com/472522478,디저트 카페;디저트카페,북구
1358301160,광주,북구,씨앤씨베이커리카페,광주 북구 안산로 11,126.902181172994,35.1882846751302,카페,,http://place.map.kakao.com/1358301160,디저트 카페;디저트카페;베이커리 카페,북구
266604145,광주,북구,인크커피 광주기아챔피언스필드점,광주 북구 서림로 10,126.88899259051618,35.16727170040502,카페,0507-1363-5941,http://place.map.kakao.com/266604145,베이커리 카페,북구
1116852033,광주,북구,반헤이브,광주 북구 용전마을길 23-6,126.895278516426,35.2386103522785,카페,062-714-1556,http://place.map.kakao.com/1116852033,베이커리 카페,북구
2082814301,광주,북구,어썸브릿지,광주 북구 용산마을길 37,126.87770980388478,35.24115009693852,카페,,http://place.map.kakao.com/2082814301,베이커리 카페,북구
297621957,광주,북구,카페루브시,광주 북구 하서로 587-2,126.88270382824228,35.2262368288228,카페,,http://place.map.kakao.com/297621957,베이커리 카페,북구
1906438027,광주,북구,이븐베터커피,광주 북구 양산택지로 24,126.879270936551,35.2085651832064,카페,010-2925-3636,http://place.map.kakao.com/1906438027,베이커리 카페,북구
414318808,광주,북구,삼소,광주 북구 삼소로 352,126.87148829127146,35.24100844885475,카페,062-573-5310,http://place.map.kakao.com/414318808,베이커리 카페,북구
701875655,광주,북구,포르피노 여섯번째이야기,광주 북구 서방로 28,126.91603770574885,35.17297922877365,카페,0502-5551-6003,http://place.map.kakao.com/701875655,베이커리 카페,북구
1297688447,광주,북구,테이크파이브풍향,광주 북구 필문대로 71,126.92750276328398,35.16287339385544,카페,062-575-0987,http://place.map.kakao.com/1297688447,베이커리 카페,북구
1719350625,광주,북구,쿠크당,광주 북구 우치로231번길 6,126.905055623211,35.1854440882351,카페,010-5045-4002,http://place.map.kakao.com/1719350625,베이커리 카페,북구
394049354,광주,북구,포르피노 두번째이야기,광주 북구 각화동 591,126.93541237058687,35.18757866090964,카페,062-265-0090,http://place.map.kakao.com/394049354,베이커리 카페,북구
1258454300,광주,북구,다우카페 아쿠아시티 매곡점,광주 북구 서하로 82,126.88935535397168,35.18713342294626,카페,062-414-9700,http://place.map.kakao.com/1258454300,베이커리 카페,북구
1954190970,광주,북구,썬베이커리카페,광주 북구 매곡로 36-4,126.89487241240428,35.18804419923753,카페,,http://place.map.kakao.com/1954190970,베이커리 카페,북구
1271860168,광주,북구,카페12:ON,광주 북구 서강로 61,126.870974871703,35.1773580627045,카페,,http://place.map.kakao.com/1271860168,베이커리 카페,북구
1571740047,광주,북구,카페거북이,광주 북구 우치로 177,126.909229187995,35.182129397653,카페,062-522-8363,http://place.map.kakao.com/1571740047,베이커리 카페,북구
750739150,광주,북구,제주스베이커리 홈플러스 동광주점,광주 북구 동문대로 200,126.930408383901,35.1793356931805,카페,,http://place.map.kakao.com/750739150,베이커리 카페,북구
1068243416,광주,북구,010카페 2호점,광주 북구 우치로 104-8,126.91289968851638,35.176682492063634,카페,010-8414-2111,http://place.map.kakao.com/1068243416,케이크 카페,북구
1733442875,광주,북구,카페숲안에 광주점,광주 북구 독립로402번길 5,126.917009494526,35.1662188129203,카페,010-4869-1893,http://place.map.kakao.com/1733442875,케이크 카페,북구
607545893,광주,북구,카페봄봄 광주 연제점,광주 북구 양일1로 19-16,126.87117031787882,35.194726479973376,카페,062-573-1431,http://place.map.kakao.com/607545893,케이크 카페,북구
591380323,광주,북구,카페214,광주 북구 서하로214번길 13,126.90406304849,35.1864293888701,카페,0502-5552-0942,http://place.map.kakao.com/591380323,케이크 카페,북구
1614178719,광주,북구,카페루,광주 북구 본촌마을길 105-2,126.880018372153,35.2193253522,카페,,http://place.map.kakao.com/1614178719,케이크 카페,북구
1223715075,광주,북구,카페봄봄 광주운암벽산점,광주 북구 대자로54번길 3,126.878510937085,35.1731781525183,카페,010-5948-7243,http://place.map.kakao.com/1223715075,케이크 카페,북구
319395245,광주,북구,카페구름,광주 북구 서하로 256,126.908301547287,35.1869635703394,카페,,http://place.map.kakao.com/319395245,케이크 카페,북구
1172399642,광주,서구,아우터베이크하우스,광주 서구 월드컵4강로104번길 16,126.874389133928,35.1458880096179,카페,062-515-2547,http://place.map.kakao.com/1172399642,디저트 카페;디저트카페;베이커리 카페,서구
457916500,광주,서구,라이크마이베이커리,광주 서구 무진대로 921,126.88142236823,35.1624539780529,카페,,http://place.map.kakao.com/457916500,디저트 카페;디저트카페;베이커리 카페,서구
1511597890,광주,서구,로지에,광주 서구 유림로50번길 9,126.864701811092,35.1668774501036,카페,0503-7150-7447,http://place.map.kakao.com/1511597890,디저트 카페;디저트카페,서구
1508048135,광주,서구,도르르컴퍼니,광주 서구 화개중앙로 139,126.849875591322,35.1304648590107,카페,062-654-0555,http://place.map.kakao.com/1508048135,디저트 카페;디저트카페;베이커리 카페,서구
890495687,광주,서구,자모크,광주 서구 시청로 92,126.852322306881,35.1565802954239,카페,,http://place.map.kakao.com/890495687,디저트 카페;디저트카페,서구
2048501795,광주,서구,헤이블루,광주 서구 서광주로 27,126.8466906605875,35.12978935667168,카페,,http://place.map.kakao.com/2048501795,디저트 카페;디저트카페,서구
981736171,광주,서구,슬라이폭스,광주 서구 마륵로 33,126.835616934193,35.1434512068334,카페,0507-1349-4657,http://place.map.kakao.com/981736171,디저트 카페;디저트카페,서구
1434971871,광주,서구,무드165,광주 서구 월산로165번길 23,126.892646540595,35.1515462756651,카페,010-3273-4859,http://place.map.kakao.com/1434971871,디저트 카페;디저트카페,서구
1552039918,광주,서구,무난,광주 서구 상무대로902번길 3,126.86070143625287,35.15042311566476,카페,010-2640-9917,http://place.map.kakao.com/1552039918,디저트 카페;디저트카페,서구
1135292675,광주,서구,휘플링,광주 서구 상무대로876번길 7,126.857898981941,35.1495527529364,카페,0503-7151-2306,http://place.map.kakao.com/1135292675,디저트 카페;디저트카페,서구
37892478,광주,서구,설빙 광주상무지구점,광주 서구 상무연하로 62,126.850500118071,35.1537423842866,카페,062-382-9981,http://place.map.kakao.com/37892478,디저트 카페;디저트카페,서구
26644279,광주,서구,설빙 광주동천점,광주 서구 하남대로 690,126.86817953030551,35.17144125165459,카페,062-513-3939,http://place.map.kakao.com/26644279,디저트 카페;디저트카페,서구
279798681,광주,서구,오느래,광주 서구 천변좌하로 288,126.846192481315,35.1601555700517,카페,,http://place.map.kakao.com/279798681,디저트 카페;디저트카페,서구
342595886,광주,서구,노티드 광주상무점,광주 서구 운천로 261,126.85375661058677,35.15544451976351,카페,,http://place.map.kakao.com/342595886,디저트 카페;디저트카페,서구
1836011191,광주,서구,카페아리아,광주 서구 회재유통길 24,126.848552548351,35.1126017779936,카페,010-8389-0605,http://place.map.kakao.com/1836011191,디저트 카페;디저트카페;케이크 카페,서구
1167504950,광주,서구,등화,광주 서구 백석길 22-3,126.85178831139541,35.14238412179446,카페,070-7510-3693,http://place.map.kakao.com/1167504950,디저트 카페;디저트카페,서구
26644286,광주,서구,설빙 풍암점,광주 서구 풍암신흥로 97,126.868790519609,35.1252264541414,카페,062-655-0500,http://place.map.kakao.com/26644286,디저트 카페;디저트카페,서구
426275497,광주,서구,주르르케이크,광주 서구 내방로 415,126.88478162124674,35.158928399175224,카페,010-2623-4150,http://place.map.kakao.com/426275497,디저트 카페;디저트카페;케이크 카페,서구
1999114967,광주,서구,슈가슈가슈가,광주 서구 운천로162번길 4-2,126.857163808148,35.1469803072509,카페,,http://place.map.kakao.com/1999114967,디저트 카페;디저트카페,서구
510874653,광주,서구,설빙 광주화정점,광주 서구 월드컵4강로 58,126.875149786539,35.1421860035335,카페,062-372-8000,http://place.map.kakao.com/510874653,디저트 카페;디저트카페,서구
502935933,광주,서구,몽월당,광주 서구 상무대로 1090,126.881115293006,35.1524720235512,카페,010-5450-7083,http://place.map.kakao.com/502935933,디저트 카페;디저트카페,서구
1547540867,광주,서구,요거트아이스크림의정석 광주풍암점,광주 서구 풍암1로21번길 7,126.87866835697326,35.12556303843564,카페,0507-2084-9992,http://place.map.kakao.com/1547540867,디저트 카페;디저트카페,서구
847495481,광주,서구,아싸롱,광주 서구 운천로 247,126.854268567262,35.1545392704275,카페,062-385-3335,http://place.map.kakao.com/847495481,디저트 카페;디저트카페,서구
1372020879,광주,서구,브리오슈,광주 서구 시청로 81,126.851042489522,35.1560343078013,카페,,http://place.map.kakao.com/1372020879,디저트 카페;디저트카페,서구
1098616696,광주,서구,소확행194,광주 서구 월드컵4강로 194,126.869693478208,35.1534328457404,카페,062-376-0606,http://place.map.kakao.com/1098616696,디저트 카페;디저트카페,서구
1505164217,광주,서구,맘스케익&청주오믈렛 광주서구점,광주 서구 내방로211번길 3,126.863715235058,35.1581890520005,카페,062-376-1117,http://place.map.kakao.com/1505164217,디저트 카페;디저트카페;케이크 카페,서구
321313079,광주,서구,디저트바이문,광주 서구 개금길 75,126.849207312965,35.1233757067678,카페,070-4408-1313,http://place.map.kakao.com/321313079,디저트 카페;디저트카페,서구
1190467144,광주,서구,요거트월드 쌍촌점,광주 서구 계수로51번길 14,126.8564851792391,35.161604063800205,카페,,http://place.map.kakao.com/1190467144,디저트 카페;디저트카페,서구
1011878093,광주,서구,플롱,광주 서구 천변좌로108번길 20-2,126.89158297322,35.159089710134765,카페,,http://place.map.kakao.com/1011878093,디저트 카페;디저트카페,서구
1364416062,광주,서구,노티드 광주신세계점,광주 서구 무진대로 932,126.882509617144,35.1604963846637,카페,010-3295-9377,http://place.map.kakao.com/1364416062,디저트 카페;디저트카페,서구
1522949353,광주,서구,블레스롤 광주상무점,광주 서구 천변좌하로 168-2,126.837320655605,35.1536091304282,카페,0507-1371-7069,http://place.map.kakao.com/1522949353,디저트 카페;디저트카페,서구
394366152,광주,서구,모스케이크,광주 서구 상무대로876번길 13,126.857707600239,35.1491685489072,카페,010-2549-5594,http://place.map.kakao.com/394366152,디저트 카페;디저트카페;케이크 카페,서구
1354180014,광주,서구,틈휴,광주 서구 내방로 320,126.875484388155,35.1573706657591,카페,0502-5550-6014,http://place.map.kakao.com/1354180014,디저트 카페;디저트카페,서구
505183252,광주,서구,빠다,광주 서구 풍암중앙로 84,126.883136058117,35.1261424987579,카페,010-9782-5480,http://place.map.kakao.com/505183252,디저트 카페;디저트카페,서구
1401502476,광주,서구,복다케이크&커피,광주 서구 풍금로11번길 20,126.863933794629,35.1198525731783,카페,062-651-1336,http://place.map.kakao.com/1401502476,디저트 카페;디저트카페,서구
1617632879,광주,서구,빈티지양동,광주 서구 구성로 129,126.909076089358,35.1490431192115,카페,,http://place.map.kakao.com/1617632879,디저트 카페;디저트카페,서구
604844176,광주,서구,설빙 금호점,광주 서구 운천로 17,126.858959112505,35.1342786197797,카페,062-462-0511,http://place.map.kakao.com/604844176,디저트 카페;디저트카페,서구
1677921707,광주,서구,로터리커피 (복권카페),광주 서구 대남대로 433,126.88755794669312,35.14891870126567,카페,062-400-8244,http://place.map.kakao.com/1677921707,디저트 카페;디저트카페,서구
2089455327,광주,서구,다정한작업실,광주 서구 상무버들로53번길 22-1,126.856559128931,35.1632455248796,카페,062-372-7979,http://place.map.kakao.com/2089455327,디저트 카페;디저트카페,서구
1786939200,광주,서구,요거얌 서구점,광주 서구 월산로165번길 30,126.891926305768,35.1517745809262,카페,070-4204-1739,http://place.map.kakao.com/1786939200,디저트 카페;디저트카페,서구
48307373,광주,서구,비비,광주 서구 상무대로884번길 29-2,126.859468177907,35.1477140051147,카페,010-4920-8518,http://place.map.kakao.com/48307373,디저트 카페;디저트카페,서구
1925830920,광주,서구,요거프레소 광주금호점,광주 서구 금화로103번길 9,126.859753789042,35.1334728224989,카페,062-381-0312,http://place.map.kakao.com/1925830920,디저트 카페;디저트카페,서구
626992160,광주,서구,크로하우스 광주서구점,광주 서구 화정로 16,126.859060398776,35.1442667277493,카페,010-9666-1007,http://place.map.kakao.com/626992160,디저트 카페;디저트카페,서구
748318255,광주,서구,요거트아이스크림의정석 광주운암동천점,광주 서구 하남대로 692,126.86843513152036,35.17154608691106,카페,0507-1337-6661,http://place.map.kakao.com/748318255,디저트 카페;디저트카페,서구
1678709702,광주,서구,초코로,광주 서구 염화로 123,126.878027785272,35.1431263504895,카페,062-384-3693,http://place.map.kakao.com/1678709702,디저트 카페;디저트카페,서구
1806396298,광주,서구,퍼니스 카페앤라운지,광주 서구 천변좌하로 192,126.83780896583205,35.155856873552615,카페,062-374-8181,http://place.map.kakao.com/1806396298,베이커리 카페,서구
1572443705,광주,서구,클레망,광주 서구 유림로46번길 21,126.865812144897,35.1671833439988,카페,062-373-7788,http://place.map.kakao.com/1572443705,베이커리 카페,서구
219054896,광주,서구,카페올모,광주 서구 덕흥2길 9,126.83753762149507,35.16647451004669,카페,0507-1334-6224,http://place.map.kakao.com/219054896,베이커리 카페,서구
528562761,광주,서구,도지커피,광주 서구 회재로 835,126.857365546193,35.1187723981566,카페,062-651-5661,http://place.map.kakao.com/528562761,베이커리 카페,서구
2116674505,광주,서구,아스트로3.0,광주 서구 상무대로955번길 1,126.866422390249,35.1517770909625,카페,062-365-3030,http://place.map.kakao.com/2116674505,베이커리 카페,서구
326836202,광주,서구,딥다크커피,광주 서구 상무오월로3번길 24-14,126.860373430095,35.1574136834928,카페,010-5266-0108,http://place.map.kakao.com/326836202,베이커리 카페,서구
549559185,광주,서구,뺑오블랙,광주 서구 풍암2로 10,126.879680401535,35.1267087796416,카페,070-8887-0505,http://place.map.kakao.com/549559185,베이커리 카페,서구
1431743483,광주,서구,삼복당,광주 서구 화운로 121,126.878223849709,35.1499985235772,카페,062-372-3536,http://place.map.kakao.com/1431743483,베이커리 카페,서구
1116900866,광주,서구,로렌베이커리카페,광주 서구 화개1로24번길 10,126.858472225395,35.1246037203127,카페,,http://place.map.kakao.com/1116900866,베이커리 카페;케이크 카페,서구
1446894970,광주,서구,에뜰담 베이커리앤커피,광주 서구 화운로 94,126.88322901044,35.147102871615,카페,,http://place.map.kakao.com/1446894970,베이커리 카페,서구
1436511644,광주,서구,차우린카페,광주 서구 풍금로37번길 10,126.862522420983,35.1221620794159,카페,010-6609-0607,http://place.map.kakao.com/1436511644,케이크 카페,서구
1616663462,광주,서구,바울카페,광주 서구 내방로241번길 1,126.8669060482655,35.15804026947279,카페,010-5219-2051,http://place.map.kakao.com/1616663462,케이크 카페,서구
1135172624,광주,서구,카페잇샌드 상무운천점,광주 서구 상무대로 876,126.85783767960852,35.15009529987855,카페,0507-2085-4939,http://place.map.kakao.com/1135172624,케이크 카페,서구
88968953,광주,서구,케이크히어,광주 서구 경열로 10,126.887958816032,35.152695772779,카페,,http://place.map.kakao.com/88968953,케이크 카페,서구
1911111340,광주,서구,카페에쏠로지 쌍촌아델리움점,광주 서구 내방로 247,126.8680476610928,35.15793786188153,카페,062-373-7818,http://place.map.kakao.com/1911111340,케이크 카페,서구
2139825920,광주,서구,카페봄봄 광주화정점,광주 서구 내방로 336,126.877378920374,35.157248210431,카페,062-452-8055,http://place.map.kakao.com/2139825920,케이크 카페,서구
1658020797,광주,서구,르카페시즌,광주 서구 화정로161번길 20,126.87573408843761,35.14689711787803,카페,010-3480-3845,http://place.map.kakao.com/1658020797,케이크 카페,서구
902438332,광주,서구,마미케이크,광주 서구 화정로21번길 27-1,126.859327917166,35.1469557980949,카페,010-4952-1649,http://place.map.kakao.com/902438332,케이크 카페,서구
828211,광주,서구,혜피니스케이크,광주 서구 운천로172번길 5,126.85715551487533,35.1479582736788,카페,,http://place.map.kakao.com/828211,케이크 카페,서구
1280752173,광주,서구,예예카페,광주 서구 상무대로955번길 46,126.86695962439782,35.15546875023331,카페,,http://place.map.kakao.com/1280752173,케이크 카페,서구
1310177019,광주,서구,오인절미브런치카페,광주 서구 경열로14번길 1,126.888228108566,35.1523949671969,카페,070-8650-6302,http://place.map.kakao.com/1310177019,케이크 카페,서구
1020925134,광주,서구,서프라이즈케이크,광주 서구 천변좌하로 156,126.835991515956,35.15310438005,카페,010-7772-3444,http://place.map.kakao.com/1020925134,케이크 카페,서구
1792687800,광주,서구,카페051 광주상무점,광주 서구 상무중앙로 71,126.84759601299639,35.153235807542345,카페,062-381-1051,http://place.map.kakao.com/1792687800,케이크 카페,서구
355184802,광주,남구,달달한온도 백운본점,광주 남구 독립로10번길 26-2,126.9042325314144,35.134582444002234,카페,,http://place.map.kakao.com/355184802,디저트 카페;디저트카페,남구
1628505068,광주,남구,암브로시아,광주 남구 오기원길 19-1,126.916004109405,35.1394558290036,카페,,http://place.map.kakao.com/1628505068,디저트 카페;디저트카페,남구
1538469620,광주,남구,달콤한썸띵,광주 남구 진제길 5,126.901757808696,35.1130423564633,카페,070-7757-9316,http://place.map.kakao.com/1538469620,디저트 카페;디저트카페,남구
2079392545,광주,남구,쿼카커피,광주 남구 양촌길 5,126.91466347340814,35.13920611634962,카페,070-7543-2530,http://place.map.kakao.com/2079392545,디저트 카페;디저트카페,남구
1463313389,광주,남구,갸또빌리,광주 남구 제중로 41,126.913920511028,35.1382537521289,카페,,http://place.map.kakao.com/1463313389,디저트 카페;디저트카페,남구
1592300665,광주,남구,시니베이키,광주 남구 금화로415번길 24,126.889339644025,35.1452481968192,카페,010-8255-0209,http://place.map.kakao.com/1592300665,디저트 카페;디저트카페,남구
25148288,광주,남구,설빙 광주진월점,광주 남구 서문대로 687,126.898479505231,35.1206327591063,카페,062-674-5300,http://place.map.kakao.com/25148288,디저트 카페;디저트카페,남구
1403584387,광주,남구,아이언,광주 남구 사직안길 14,126.913153419586,35.1435063433388,카페,,http://place.map.kakao.com/1403584387,디저트 카페;디저트카페,남구
2084946350,광주,남구,BLCK,광주 남구 백서로 50-1,126.91385531991634,35.13764077925022,카페,0502-5553-4949,http://place.map.kakao.com/2084946350,디저트 카페;디저트카페,남구
1339130051,광주,남구,티라미뚜,광주 남구 백양로 165,126.919021947733,35.1369647142454,카페,062-462-4991,http://place.map.kakao.com/1339130051,디저트 카페;디저트카페,남구
1753336747,광주,남구,블랑슈,광주 남구 효덕로 291,126.89463667527374,35.11031785542372,카페,,http://place.map.kakao.com/1753336747,디저트 카페;디저트카페,남구
1982597071,광주,남구,카페드포레,광주 남구 봉선로52번길 23,126.901827675103,35.1279545968658,카페,,http://place.map.kakao.com/1982597071,디저트 카페;디저트카페,남구
1671774160,광주,남구,베이키즈,광주 남구 봉선중앙로 60-3,126.911662137051,35.1262207280949,카페,0503-7151-9046,http://place.map.kakao.com/1671774160,디저트 카페;디저트카페,남구
1572572273,광주,남구,화채업자,광주 남구 봉선1로16번안길 15,126.908696279062,35.1275128891818,카페,010-6661-3479,http://place.map.kakao.com/1572572273,디저트 카페;디저트카페,남구
789275541,광주,남구,별빛스푼 남구점,광주 남구 백운로 21,126.908654197257,35.1357224760666,카페,,http://place.map.kakao.com/789275541,디저트 카페;디저트카페,남구
51431869,광주,남구,빵브레,광주 남구 서문대로627번길 9,126.89682756975756,35.11524300186403,카페,,http://place.map.kakao.com/51431869,디저트 카페;디저트카페,남구
24812156,광주,남구,설빙 봉선점,광주 남구 봉선중앙로 55,126.91119281406213,35.125995945413344,카페,062-651-5957,http://place.map.kakao.com/24812156,디저트 카페;디저트카페,남구
1795835741,광주,남구,소미담 광주진월점,광주 남구 광복마을길 83,126.89660329625,35.1251821633706,카페,010-5028-6747,http://place.map.kakao.com/1795835741,디저트 카페;디저트카페,남구
225273110,광주,남구,아필코 브런치카페 광주봉선점,광주 남구 봉선로 198,126.91575587059023,35.122653337329915,카페,070-8882-4222,http://place.map.kakao.com/225273110,디저트 카페;디저트카페;케이크 카페,남구
218440318,광주,남구,레파스 효천점,광주 남구 효천로92번길 44-3,126.870396175554,35.1054567292044,카페,062-676-2678,http://place.map.kakao.com/218440318,디저트 카페;디저트카페;베이커리 카페,남구
1876694170,광주,남구,욘더스콘,광주 남구 봉선로79번길 21,126.908205607876,35.1267589781348,카페,,http://place.map.kakao.com/1876694170,디저트 카페;디저트카페,남구
828658344,광주,남구,파이프롬헤븐,광주 남구 광복마을8길 8-10,126.89549110126444,35.129265289897816,카페,070-7878-4949,http://place.map.kakao.com/828658344,디저트 카페;디저트카페,남구
1627985779,광주,남구,태홈,광주 남구 백양로 47,126.90698160887497,35.13413119954943,카페,,http://place.map.kakao.com/1627985779,디저트 카페;디저트카페,남구
584259859,광주,남구,브룩빌즈,광주 남구 임암길 181,126.866690162809,35.1019590115111,카페,,http://place.map.kakao.com/584259859,디저트 카페;디저트카페,남구
1471355815,광주,남구,두두디저트,광주 남구 효우로77번길 13,126.905029585641,35.1058250160939,카페,010-8228-8140,http://place.map.kakao.com/1471355815,디저트 카페;디저트카페,남구
778745713,광주,남구,프레시카페,광주 남구 백서로 41,126.912843783523,35.1375012461046,카페,,http://place.map.kakao.com/778745713,디저트 카페;디저트카페,남구
621328990,광주,남구,포도룸,광주 남구 군분로159번길 8,126.886238607771,35.1459339651692,카페,010-4095-0604,http://place.map.kakao.com/621328990,디저트 카페;디저트카페,남구
1780731438,광주,남구,퀸즈테이블,광주 남구 대남대로193번길 5-1,126.90430725713112,35.13260941909475,카페,062-652-6522,http://place.map.kakao.com/1780731438,디저트 카페;디저트카페,남구
2006403270,광주,남구,프롬파리,광주 남구 백운로99번길 2-1,126.90587086594094,35.14206233187463,카페,0502-5552-9287,http://place.map.kakao.com/2006403270,디저트 카페;디저트카페,남구
1940960545,광주,남구,라빌레뜨,광주 남구 제석로80번길 50-23,126.912806886132,35.1206475174899,카페,,http://place.map.kakao.com/1940960545,디저트 카페;디저트카페,남구
1046598004,광주,남구,설빙 광주남구효천점,광주 남구 효천중앙로 66,126.875891000949,35.1020661267617,카페,062-672-8882,http://place.map.kakao.com/1046598004,디저트 카페;디저트카페,남구
1384017001,광주,남구,설빙 광주기독병원점,광주 남구 양림로 37,126.911503194224,35.1362329585744,카페,010-3224-2440,http://place.map.kakao.com/1384017001,디저트 카페;디저트카페,남구
979182796,광주,남구,달롱도르요거트아이스크림 효천점,광주 남구 효천로 8,126.876537013224,35.0991562697365,카페,,http://place.map.kakao.com/979182796,디저트 카페;디저트카페,남구
1771493698,광주,남구,요거트월드 광주진월점,광주 남구 서문대로 689-6,126.898217878704,35.1210588853002,카페,,http://place.map.kakao.com/1771493698,디저트 카페;디저트카페,남구
1399872491,광주,남구,카페레이즈,광주 남구 수박등로 3,126.894909207085,35.140676941865,카페,010-276-2431,http://place.map.kakao.com/1399872491,디저트 카페;디저트카페;케이크 카페,남구
1214226256,광주,남구,프렌치버터하우스,광주 남구 봉선초등길 18,126.914571657536,35.1304610273328,카페,010-9716-2508,http://place.map.kakao.com/1214226256,디저트 카페;디저트카페;베이커리 카페,남구
1539229252,광주,남구,빙동댕 광주양림점,광주 남구 오기원길 7-1,126.91671054840059,35.1385946140511,카페,,http://place.map.kakao.com/1539229252,디저트 카페;디저트카페,남구
535877657,광주,남구,52푸드,광주 남구 봉선중앙로68번길 5,126.91211090296791,35.127200837268596,카페,062-655-7373,http://place.map.kakao.com/535877657,디저트 카페;디저트카페,남구
136471403,광주,남구,달콤허니,광주 남구 봉선1로 71,126.913091872313,35.1281083169282,카페,010-4616-7494,http://place.map.kakao.com/136471403,디저트 카페;디저트카페,남구
2030982066,광주,남구,커플티,광주 남구 백양로 11,126.90314279087937,35.133816320708114,카페,0503-7152-5188,http://place.map.kakao.com/2030982066,디저트 카페;디저트카페,남구
1849903447,광주,남구,해지제과,광주 남구 서문대로 341,126.876998879477,35.099068405104,카페,0503-7150-8235,http://place.map.kakao.com/1849903447,디저트 카페;디저트카페,남구
1650473230,광주,남구,MG블루카페,광주 남구 봉선1로37번길 3,126.90905636989,35.1282928397569,카페,070-4295-7928,http://place.map.kakao.com/1650473230,디저트 카페;디저트카페,남구
309663906,광주,남구,달롱도르요거트아이스크림 양림점,광주 남구 천변좌로 468,126.919021250943,35.13877645263,카페,,http://place.map.kakao.com/309663906,디저트 카페;디저트카페,남구
1782372692,광주,남구,봉빙,광주 남구 봉선로51번길 36,126.908262379286,35.1289646588748,카페,070-7614-3579,http://place.map.kakao.com/1782372692,디저트 카페;디저트카페,남구
1161312101,광주,남구,코호케이크바,광주 남구 백서로 69,126.915438549722,35.1388316928913,카페,070-824-5055,http://place.map.kakao.com/1161312101,디저트 카페;디저트카페;케이크 카페,남구
1159107878,광주,남구,펭귄당,광주 남구 백서로 81,126.915433261965,35.1397006025532,카페,,http://place.map.kakao.com/1159107878,베이커리 카페,남구
1565569021,광주,남구,무등,광주 남구 군분로34번길 4-1,126.894895540384,35.1367965653331,카페,0502-5550-7423,http://place.map.kakao.com/1565569021,베이커리 카페,남구
683821102,광주,남구,릴커피스탠드,광주 남구 대남대로223번길 22,126.898244321313,35.1333165572305,카페,0507-1361-0164,http://place.map.kakao.com/683821102,베이커리 카페,남구
649856648,광주,남구,포르피노,광주 남구 효우1로 12,126.89446591681263,35.1023811694025,카페,062-676-0010,http://place.map.kakao.com/649856648,베이커리 카페,남구
328863269,광주,남구,카페스테이(CAFE STAY),광주 남구 효우로230번길 1,126.89171239917363,35.10279787734087,카페,062-681-7577,http://place.map.kakao.com/328863269,케이크 카페,남구
1380411660,광주,남구,푸른길카페,광주 남구 백양로 19,126.903998533537,35.1338927161353,카페,0502-5553-2153,http://place.map.kakao.com/1380411660,케이크 카페,남구
1623222,광주,동구,파더스베이글 본점,광주 동구 서석로 87,126.92091673459431,35.14963731024973,카페,062-225-2289,http://place.map.kakao.com/1623222,디저트 카페;디저트카페,동구
935938886,광주,동구,휘핑디에그,광주 동구 제봉로 140,126.92109814189949,35.15043152740898,카페,010-9855-0802,http://place.map.kakao.com/935938886,디저트 카페;디저트카페,동구
27388716,광주,동구,솔티드머랭,광주 동구 백서로 229,126.926618082512,35.1482131412921,카페,070-8840-0113,http://place.map.kakao.com/27388716,디저트 카페;디저트카페,동구
908861159,광주,동구,아우스밀,광주 동구 동명로25번길 4-1,126.92324369593565,35.15154608601661,카페,,http://place.map.kakao.com/908861159,디저트 카페;디저트카페,동구
1286455205,광주,동구,달정원,광주 동구 중앙로 210,126.917247322348,35.151405132281,카페,062-222-4309,http://place.map.kakao.com/1286455205,디저트 카페;디저트카페,동구
22790653,광주,동구,설빙 광주충장로점,광주 동구 중앙로160번길 31-11,126.91641676559031,35.146898658849786,카페,062-233-5957,http://place.map.kakao.com/22790653,디저트 카페;디저트카페,동구
27030463,광주,동구,시스살롱,광주 동구 백서로 219,126.926276404777,35.1474197360305,카페,070-8800-2411,http://place.map.kakao.com/27030463,디저트 카페;디저트카페,동구
981859736,광주,동구,네이비소셜클럽,광주 동구 동계로10번길 6,126.924883592801,35.1524214334648,카페,,http://place.map.kakao.com/981859736,디저트 카페;디저트카페,동구
1207788794,광주,동구,그랩앤고,광주 동구 장동로 23-12,126.924866372412,35.1484707584343,카페,010-6489-0057,http://place.map.kakao.com/1207788794,디저트 카페;디저트카페,동구
26644283,광주,동구,설빙 광주조선대점,광주 동구 필문대로287번길 23-4,126.929636519039,35.145027717736,카페,062-227-5276,http://place.map.kakao.com/26644283,디저트 카페;디저트카페,동구
700164070,광주,동구,치너스,광주 동구 장동로 23-6,126.92471399994491,35.148287687509914,카페,010-5798-5202,http://place.map.kakao.com/700164070,디저트 카페;디저트카페,동구
2007794744,광주,동구,올데이피크닉,광주 동구 제봉로110번길 20,126.923979081777,35.1490912427728,카페,010-4642-9040,http://place.map.kakao.com/2007794744,디저트 카페;디저트카페,동구
764523444,광주,동구,딜라이트베이크샵,광주 동구 필문대로 261,126.92849279959553,35.14783208497536,카페,010-7161-5730,http://place.map.kakao.com/764523444,디저트 카페;디저트카페,동구
1093803643,광주,동구,쿠키즈,광주 동구 장동로 42,126.92608435434403,35.14742502715621,카페,0503-7150-7099,http://place.map.kakao.com/1093803643,디저트 카페;디저트카페,동구
1276592645,광주,동구,에브르인테라스,광주 동구 제봉로110번길 1,126.922171142524,35.1484411150212,카페,,http://place.map.kakao.com/1276592645,디저트 카페;디저트카페,동구
1728289602,광주,동구,오버롤,광주 동구 동계천로 135-6,126.924557980044,35.1496792919276,카페,,http://place.map.kakao.com/1728289602,디저트 카페;디저트카페,동구
554609581,광주,동구,요거트아이스크림의정석 광주동구점,광주 동구 충장로 101-5,126.91820065598951,35.147374893584036,카페,0507-1339-9495,http://place.map.kakao.com/554609581,디저트 카페;디저트카페,동구
241374170,광주,동구,디저트39 광주충장점,광주 동구 충장로안길 38,126.91701138120811,35.14706942482178,카페,062-233-3339,http://place.map.kakao.com/241374170,디저트 카페;디저트카페,동구
1949715088,광주,동구,동명당,광주 동구 장동로 23-41,126.924749889367,35.1486410433532,카페,,http://place.map.kakao.com/1949715088,디저트 카페;디저트카페,동구
1214779931,광주,동구,카페도심,광주 동구 필문대로273번길 29,126.93064547954656,35.14576020502032,카페,070-4205-1122,http://place.map.kakao.com/1214779931,디저트 카페;디저트카페;케이크 카페,동구
1225201149,광주,동구,아멜리아,광주 동구 경양로 234,126.91468175712258,35.15638426942651,카페,062-714-1312,http://place.map.kakao.com/1225201149,디저트 카페;디저트카페,동구
85448485,광주,동구,엠버스 베이크샵,광주 동구 장동로 19-2,126.924285873792,35.148432539891,카페,062-412-4805,http://place.map.kakao.com/85448485,디저트 카페;디저트카페,동구
1775547980,광주,동구,카카오브릭,광주 동구 서석로7번길 12-14,126.91486463856,35.1462368804926,카페,010-2458-9552,http://place.map.kakao.com/1775547980,디저트 카페;디저트카페,동구
375365050,광주,동구,인세인쿠키,광주 동구 백서로 212,126.92609383193648,35.14665256633048,카페,070-8691-4896,http://place.map.kakao.com/375365050,디저트 카페;디저트카페,동구
1604437292,광주,동구,로맨틱뮤지엄,광주 동구 동계천로 110,126.922308200487,35.1508757788148,카페,,http://place.map.kakao.com/1604437292,디저트 카페;디저트카페,동구
145693893,광주,동구,아프레시,광주 동구 동명로26번길 17,126.92588892556901,35.15115654225162,카페,,http://place.map.kakao.com/145693893,디저트 카페;디저트카페,동구
756643092,광주,동구,커피메이트,광주 동구 동계로 6,126.92436355791,35.1522417392117,카페,,http://place.map.kakao.com/756643092,디저트 카페;디저트카페,동구
2062957291,광주,동구,카페코브,광주 동구 경양로 275,126.919921343272,35.1552575403863,카페,010-3068-8802,http://place.map.kakao.com/2062957291,디저트 카페;디저트카페,동구
642657908,광주,동구,디저트39 광주용산점,광주 동구 용산3길 17,126.92464356602338,35.11873194031538,카페,062-233-1139,http://place.map.kakao.com/642657908,디저트 카페;디저트카페,동구
877071345,광주,동구,해브어굿데이,광주 동구 산수길 11-10,126.92722135106,35.1547231318623,카페,010-3951-3117,http://place.map.kakao.com/877071345,디저트 카페;디저트카페,동구
2120525804,광주,동구,오리엔스,광주 동구 동계천로 151-5,126.92573046153,35.1492149140035,카페,,http://place.map.kakao.com/2120525804,디저트 카페;디저트카페;베이커리 카페,동구
761426304,광주,동구,카페플랜비,광주 동구 동계천로 126-7,126.92340137226,35.1495857261141,카페,062-524-0212,http://place.map.kakao.com/761426304,디저트 카페;디저트카페;케이크 카페,동구
129481753,광주,동구,사실빙 광주계림점,광주 동구 무등로 406-1,126.926613578649,35.1593404316485,카페,062-710-3525,http://place.map.kakao.com/129481753,디저트 카페;디저트카페,동구
1594417902,광주,동구,프로젝트 위크,광주 동구 충장로 102-6,126.917698396932,35.1470257267342,카페,0507-1479-7852,http://place.map.kakao.com/1594417902,디저트 카페;디저트카페,동구
1578116926,광주,동구,스콘스,광주 동구 동명로 41-2,126.92532871962415,35.15170873243925,카페,0507-1388-3161,http://place.map.kakao.com/1578116926,디저트 카페;디저트카페,동구
1299484609,광주,동구,래터레인,광주 동구 동계천로 165-1,126.927255874941,35.1492275570281,카페,0503-7151-1660,http://place.map.kakao.com/1299484609,디저트 카페;디저트카페,동구
609437087,광주,동구,요거팡 동구조대점,광주 동구 지산로 42,126.93231753778663,35.14750979163498,카페,062-710-1026,http://place.map.kakao.com/609437087,디저트 카페;디저트카페,동구
1298868487,광주,동구,허니비,광주 동구 서남로 30,126.92486579272,35.1443253969701,카페,,http://place.map.kakao.com/1298868487,디저트 카페;디저트카페,동구
325608714,광주,동구,피치핏치,광주 동구 서석로 91,126.921289661233,35.1498457673917,카페,010-5392-5794,http://place.map.kakao.com/325608714,디저트 카페;디저트카페,동구
81793434,광주,동구,쿠자쿠,광주 동구 무등로306번길 8,126.91599550831,35.1617077150004,카페,0503-7153-8509,http://place.map.kakao.com/81793434,디저트 카페;디저트카페,동구
930151189,광주,동구,청애몽,광주 동구 동계로 15,126.924304628282,35.1530664472842,카페,,http://place.map.kakao.com/930151189,디저트 카페;디저트카페,동구
859453104,광주,동구,요거트아이스크림의정석 광주계림점,광주 동구 무등로375번길 22,126.924279459317,35.1624631064654,카페,062-714-3087,http://place.map.kakao.com/859453104,디저트 카페;디저트카페,동구
142507928,광주,동구,화채업자,광주 동구 장동로 15-1,126.92377319446,35.1486314193013,카페,,http://place.map.kakao.com/142507928,디저트 카페;디저트카페,동구
1296688953,광주,동구,로우 딥 빙 스틸,광주 동구 백서로153번길 6-1,126.9219485169,35.1436862902996,카페,070-8611-9807,http://place.map.kakao.com/1296688953,디저트 카페;디저트카페,동구
2112793244,광주,동구,79파운야드 광주동명점,광주 동구 제봉로110번길 4,126.922445642081,35.1482880596791,카페,062-400-7998,http://place.map.kakao.com/2112793244,디저트 카페;디저트카페,동구
1056396913,광주,동구,빈드럭스,광주 동구 지호로124번길 32,126.94385718695231,35.14687572114361,카페,070-4400-2400,http://place.map.kakao.com/1056396913,베이커리 카페,동구
1707855609,광주,동구,레파스 학동점,광주 동구 남문로 669,126.929070807456,35.130498322223,카페,062-222-0425,http://place.map.kakao.com/1707855609,베이커리 카페,동구
975849422,광주,동구,털보의커피 놀이터,광주 동구 필문대로 242-7,126.9286888210657,35.14956551786823,카페,062-233-2228,http://place.map.kakao.com/975849422,베이커리 카페,동구
1920843268,광주,동구,울림,광주 동구 의재로33번길 19,126.931686536657,35.1343675757172,카페,,http://place.map.kakao.com/1920843268,베이커리 카페,동구
114735521,광주,동구,인포레,광주 동구 선교로 45,126.95190888446783,35.090705173960664,카페,0507-1338-9692,http://place.map.kakao.com/114735521,베이커리 카페,동구
1553303810,광주,동구,포르피노 열번째이야기,광주 동구 남문로 663,126.929323664961,35.1299116820734,카페,062-225-0090,http://place.map.kakao.com/1553303810,베이커리 카페,동구
24839815,광주,동구,소맥베이커리,광주 동구 문화전당로26번길 10-2,126.92066432418093,35.14511501595872,카페,0507-1488-0139,http://place.map.kakao.com/24839815,베이커리 카페,동구
883576897,광주,동구,카페뮤지엄CM,광주 동구 문화전당로 29-1,126.919105990833,35.1451797850753,카페,062-233-2006,http://place.map.kakao.com/883576897,베이커리 카페,동구
894506174,광주,동구,헤이드,광주 동구 백서로 166,126.92333689822055,35.143442006146046,카페,062-412-5165,http://place.map.kakao.com/894506174,베이커리 카페,동구
1692969948,광주,동구,여기카페,광주 동구 장동로 15-1,126.92376222867377,35.14862239879176,카페,010-5685-1125,http://place.map.kakao.com/1692969948,케이크 카페,동구
1419581217,광주,동구,카페 마루,광주 동구 조선대길 185,126.93376193345792,35.14589535014445,카페,070-7500-1919,http://place.map.kakao.com/1419581217,케이크 카페,동구
852807254,광주,동구,투썸플레이스 광주동명동카페거리점,광주 동구 동명로 12,126.923067306666,35.1500596302957,카페,062-234-0023,http://place.map.kakao.com/852807254,케이크 카페,동구
619851623,광주,동구,카페호시정,광주 동구 동계천로 137-9,126.92484215313831,35.149747070592646,카페,,http://place.map.kakao.com/619851623,케이크 카페,동구
79287361,광주,동구,러블리카페,광주 동구 동명로 56,126.926508961548,35.1511848621295,카페,,http://place.map.kakao.com/79287361,케이크 카페,동구
1766950522,광주,동구,카페잇샌드 학동점,광주 동구 의재로 65,126.93500735070792,35.13223136803904,카페,062-456-0065,http://place.map.kakao.com/1766950522,케이크 카페,동구
19401491,광주,동구,수선화 플라워카페,광주 동구 남문로 689,126.928453945858,35.1320365874574,카페,062-224-4005,http://place.map.kakao.com/19401491,케이크 카페,동구
